ID,Cross,Place,Socken,Härad,Kommun,Classification,Latitude,Long,Longitude,Lat
Sm 40 $ ,0,Burvik,Knutby sn,Närdinghundra hd,Uppsala,Pr3?,59.90246,6644776,18.38027,1643931
Sm 42  ,1,Burvik,Knutby sn,Närdinghundra hd,Uppsala,?,59.90246,6644785,18.38027,1643937
Sm 43 $ ,0,Gränsta,Knutby sn,Närdinghundra hd,Uppsala,?,59.90307,6645124,18.24494,1636497
Sö 258 $ ,1,Dalby kyrka,Dalby sn,Hagunda hd,Uppsala,Pr4,59.75983,6628018,17.57316,1599369
Sö 259  ,0,Dalby kyrka,Dalby sn,Hagunda hd,Uppsala,?,59.75983,6627999,17.57316,1599369
Sö 26 $ ,0,Hållberga,Dalby sn,Hagunda hd,Uppsala,Pr5,59.77639,6629832,17.50696,1595918
Sö 260  ,1,Hässle,Dalby sn,Hagunda hd,Uppsala,?,59.75513,6627222,17.55745,1598759
Sö 261  ,1,Viggby (nu: Viggeby) bro,Dalby sn,Hagunda hd,Uppsala,Pr4,59.76692,6628874,17.55598,1598176
Sö 262 $ ,1,Viggby (nu: Viggeby) bro,Dalby sn,Hagunda hd,Uppsala,Pr2,59.76692,6628860,17.55598,1598180
Sö 263 †$ ,0,Västeråkers kyrka,Västeråkers sn,Hagunda hd,Uppsala,Pr3 - Pr4?,59.75252,6627089,17.51065,1595827
Sö 264 $ ,0,Västeråkers kyrka,Västeråkers sn,Hagunda hd,Uppsala,Pr4,59.75252,6627098,17.51065,1595832
Sö 265  ,1,Torresta,Västeråkers sn,Hagunda hd,Uppsala,Pr4,59.54384,6627845,17.50061,1594481
Sö 266  ,1,Balingsta kyrka,Balingsta sn,Hagunda hd,Uppsala,?,59.7639,6628252,17.4253,1591040
Sö 267 † ,0,Balingsta kyrka,Balingsta sn,Hagunda hd,Uppsala,?,59.7639,6628252,17.4253,1591040
Sö 268  ,0,Balingsta kyrka,Balingsta sn,Hagunda hd,Uppsala,Pr4,59.7639,6628252,17.4253,1591040
Sö 269 $ ,1,Balingsta kyrka,Balingsta sn,Hagunda hd,Uppsala,?,59.7639,6628252,17.4253,1591040
Sö 27  ,0,Skolhuset,Balingsta sn,Hagunda hd,Uppsala,?,58.39164,6628167,13.58024,1591098
Sö 270 $ ,1,Prästgården,Balingsta sn,Hagunda hd,Uppsala,Pr4,59.76266,6628197,17.42505,1590893
Sö 271 † ,0,Prästgården,Balingsta sn,Hagunda hd,Uppsala,Pr2?,59.76266,6628790,17.42505,1590300
Sö 272 $ ,0,Frövi,Balingsta sn,Hagunda hd,Uppsala,Pr4,59.4662,6625872,15.36507,1590017
Sö 273  ,1,Frövi,Balingsta sn,Hagunda hd,Uppsala,Fp,59.4662,6626000,15.36507,1589840
Sö 274  ,1,Kumla,Balingsta sn,Hagunda hd,Uppsala,Pr4?,59.11796,6627300,15.12056,1592650
Sö 275  ,0,Måsta,Balingsta sn,Hagunda hd,Uppsala,Pr3,59.77923,6630161,17.42597,1590582
Sö 276 $ ,1,Måsta,Balingsta sn,Hagunda hd,Uppsala,Pr3,59.77923,6630100,17.42597,1590580
Sö 277  ,0,Norsta,Balingsta sn,Hagunda hd,Uppsala,Pr3?,59.85856,6626591,17.63893,1592550
Sö 278  ,0,Säva,Balingsta sn,Hagunda hd,Uppsala,Pr4?,59.84621,6628672,16.91005,1589289
Sö 279  ,0,Tibble,Balingsta sn,Hagunda hd,Uppsala,?,59.99897,6627200,17.86228,1590850
Sö 28 † ,0,Vik,Balingsta sn,Hagunda hd,Uppsala,Pr2?,59.73638,6625825,17.46254,1593100
Sö 280  ,0,Vik,Balingsta sn,Hagunda hd,Uppsala,Pr2?,59.73638,6626116,17.46254,1592845
Sö 289  ,1,Hagby kyrka,Hagby sn,Hagunda hd,Uppsala,Pr3?,59.80162,6632382,17.37639,1588198
Sö 29 † ,0,Focksta,Hagby sn,Hagunda hd,Uppsala,Pr3,59.79457,6631388,17.36904,1587808
Sö 290  ,1,Focksta,Hagby sn,Hagunda hd,Uppsala,Fp,59.79457,6631289,17.36904,1587770
Sö 291 $ ,0,Möjbro,Hagby sn,Hagunda hd,Uppsala,,59.81302,6633909,17.3819,1587061
Sö 292 $ ,1,Möjbro,Hagby sn,Hagunda hd,Uppsala,Pr3,59.81538,6633900,17.35687,1587000
Sö 293  ,0,Bragby,Ramsta sn,Hagunda hd,Uppsala,Pr4,59.78675,6631010,17.43718,1591143
Sö 294 † ,0,Skogstibble kyrka,Skogstibble sn (nu Skogs-Tibble),Hagunda hd,Uppsala,Pr5,59.83157,6635442,17.31847,1584774
Sö 295 † ,0,Skogstibble kyrka,Skogstibble sn (nu Skogs-Tibble),Hagunda hd,Uppsala,?,59.83157,6635435,17.31847,1584773
Sö 296  ,1,Skogstibble kyrka,Skogstibble sn (nu Skogs-Tibble),Hagunda hd,Uppsala,?,59.83157,6635435,17.31847,1584773
Sö 297  ,1,Prästgården,Skogstibble sn (nu Skogs-Tibble),Hagunda hd,Uppsala,?,59.73888,6635530,17.72977,1584775
Sö 298  ,1,Ingla,Skogstibble sn (nu Skogs-Tibble),Hagunda hd,Uppsala,Pr3 - Pr4,59.83722,6636256,17.30581,1584417
Sö 299  ,0,Ingla,Skogstibble sn (nu Skogs-Tibble),Hagunda hd,Uppsala,Pr4,59.83722,6636198,17.30581,1584306
Sö 3  ,1,Ingla,Skogstibble sn (nu Skogs-Tibble),Hagunda hd,Uppsala,Pr4,59.83722,6636250,17.30581,1584125
Sö 30  ,0,Skillsta,Skogstibble sn (nu Skogs-Tibble),Hagunda hd,Uppsala,Pr4,59.81681,6634010,17.34168,1586150
Sö 300 $ ,1,Ångelsta,Skogstibble sn (nu Skogs-Tibble),Hagunda hd,Uppsala,?,59.81243,6633153,17.33957,1586380
Sö 301  ,0,Västerby,Ålands sn,Hagunda hd,Uppsala,Pr4,59.87702,6640966,17.28477,1582025
Sö 302  ,1,Österby,Ålands sn,Hagunda hd,Uppsala,Pr4,59.87702,6640434,17.28477,1583058
Sö 303 $ ,0,Uppsala-Näs kyrka,Uppsala-Näs sn,Ulleråkers hd,Uppsala,Pr2,59.78766,6631139,17.5947,1600474
Sö 304  ,1,Uppsala-Näs kyrka,Uppsala-Näs sn,Ulleråkers hd,Uppsala,?,59.78766,6631139,17.5947,1600474
Sö 305  ,1,Högby,Uppsala-Näs sn,Ulleråkers hd,Uppsala,Pr3 - Pr4,59.7771,6631701,16.97451,1598773
Sö 306  ,0,Söderby,Uppsala-Näs sn,Ulleråkers hd,Uppsala,Pr4,59.80633,6633530,17.52958,1593821
Sö 307 $ ,0,Flogsta,Bondkyrka sn (nu Uppsala),Ulleråkers hd,Uppsala,Pr4,59.84916,6637825,17.58997,1599750
Sö 308 $ ,0,Håga,Bondkyrka sn (nu Uppsala),Ulleråkers hd,Uppsala,Pr1?,59.83869,6636750,17.57624,1599600
Sö 309  ,0,Norby,Bondkyrka sn (nu Uppsala),Ulleråkers hd,Uppsala,Pr4,59.83087,6636281,17.61769,1600744
Sö 31 $ ,0,Norby,Bondkyrka sn (nu Uppsala),Ulleråkers hd,Uppsala,Pr4,59.83087,6636345,17.61769,1600720
Sö 310 † ,0,Vårdsätra,Bondkyrka sn (nu Uppsala),Ulleråkers hd,Uppsala,Pr4,59.79351,6632407,17.62259,1601366
Sö 311  ,0,Läby kyrka,Läby sn,Ulleråkers hd,Uppsala,?,59.8486,6637821,17.52333,1596300
Sö 312  ,1,Håmö,Läby sn,Ulleråkers hd,Uppsala,Pr3 - Pr4?,59.8414,6637367,17.49619,1596086
Sö 313  ,0,Kvarnbo,Läby sn,Ulleråkers hd,Uppsala,Pr4?,59.84298,6637031,17.56559,1598078
Sö 314 $ ,0,Västerby,Läby sn,Ulleråkers hd,Uppsala,Pr3?,59.87714,6637742,17.27891,1595831
Sö 315  ,0,"Västerby, Läby vad",Läby sn,Ulleråkers hd,Uppsala,Pr3,59.87714,6637359,17.27891,1596101
Sö 316 † ,0,Vänge kyrka,Vänge sn,Ulleråkers hd,Uppsala,?,59.8561,6638531,17.43522,1591323
Sö 317 † ,0,Brun0,Vänge sn,Ulleråkers hd,Uppsala,Pr5,59.85865,6637537,17.43024,1591756
Sö 318 $ ,1,Bärby,Vänge sn,Ulleråkers hd,Uppsala,Pr4,59.85963,6639397,17.4004,1589397
Sö 319  ,1,Fiby,Vänge sn,Ulleråkers hd,Uppsala,Pr4,59.85958,6641673,17.42624,1587962
Sö 32 $U/V ,0,Finnsta,Vänge sn,Ulleråkers hd,Uppsala,?,59.86492,6639500,17.42799,1591075
Sö 320  ,0,Körlinge,Vänge sn,Ulleråkers hd,Uppsala,Pr4,59.85191,6638100,17.43786,1591400
Sö 321  ,0,Åltomta bro,Vänge sn,Ulleråkers hd,Uppsala,Pr4?,60.02125,6639072,17.69786,1587459
Sö 322  ,0,Börje kyrka,Börje sn,Ulleråkers hd,Uppsala,KB,59.88391,6641703,17.50015,1594931
Sö 323 † ,0,Brunnby,Börje sn,Ulleråkers hd,Uppsala,Pr4,59.85684,6640837,17.80242,1594978
Sö 324  ,0,Ströja,Börje sn,Ulleråkers hd,Uppsala,Pr5,59.92293,6644387,18.67544,1595487
Sö 325  ,0,Tiby,Börje sn,Ulleråkers hd,Uppsala,Pr4?,59.8871,6641250,17.49667,1594975
Sö 326  ,0,Ängeby,Börje sn,Ulleråkers hd,Uppsala,KB,59.92216,6645900,17.46425,1593150
Sö 327  ,0,Jumkils kyrka,Jumkils sn,Ulleråkers hd,Uppsala,Pr4,59.94257,6648093,17.42315,1590460
Sö 328  ,0,Jumkils kyrka,Jumkils sn,Ulleråkers hd,Uppsala,,59.94257,6648139,17.42315,1590437
Sö 329 † ,0,Blacksta,Jumkils sn,Ulleråkers hd,Uppsala,Pr5,59.95494,6649336,17.40191,1589287
Sö 33  ,1,Blacksta,Jumkils sn,Ulleråkers hd,Uppsala,Pr4,59.95494,6649552,17.40191,1589166
Sö 331 $ ,0,Broholm,Jumkils sn,Ulleråkers hd,Uppsala,KB,59.94816,6648856,17.4069,1589586
Sö 332 $ ,0,Holmsta,Jumkils sn,Ulleråkers hd,Uppsala,Pr4?,59.92691,6646443,17.44213,1592155
Sö 333 $ ,0,Uppsala domkyrka,Uppsala,Uppsala,Uppsala,Pr4,59.85815,6639052,17.63363,1602466
Sö 334  ,0,Uppsala domkyrka,Uppsala,Uppsala,Uppsala,Pr5?,59.85815,6639052,17.63363,1602466
Sö 335 $ ,1,Uppsala domkyrka,Uppsala,Uppsala,Uppsala,?,59.85815,6639052,17.63363,1602466
Sö 336  ,0,Uppsala domkyrka,Uppsala,Uppsala,Uppsala,Pr4,59.85815,6639052,17.63363,1602466
Sö 337 $M ,0,Uppsala domkyrka,Uppsala,Uppsala,Uppsala,Pr4?,59.85815,6639048,17.63363,1602454
Sö 338  ,1,Uppsala domkyrka,Uppsala,Uppsala,Uppsala,?,59.85815,6639048,17.63363,1602454
Sö 339 † ,0,Uppsala domkyrka,Uppsala,Uppsala,Uppsala,?,59.85815,6639048,17.63363,1602454
Sö 34 $ ,1,Uppsala domkyrka,Uppsala,Uppsala,Uppsala,Pr4?,59.85815,6639024,17.63363,1602510
Sö 340  ,0,Uppsala domkyrka,Uppsala,Uppsala,Uppsala,?,59.85815,6639048,17.63363,1602454
Sö 341 † ,0,Uppsala domkyrka,Uppsala,Uppsala,Uppsala,Pr4?,59.85815,6639032,17.63363,1602525
Sö 342 † ,0,Uppsala domkyrka,Uppsala,Uppsala,Uppsala,Pr3 - Pr4,59.85815,6639048,17.63363,1602454
Sö 343  ,1,Uppsala domkyrka,Uppsala,Uppsala,Uppsala,Pr5,59.85815,6639022,17.63363,1602506
Sö 344 $ ,1,Uppsala domkyrka,Uppsala,Uppsala,Uppsala,Pr4,59.85815,6639036,17.63363,1602528
Sö 345 $ ,0,Uppsala domkyrka,Uppsala,Uppsala,Uppsala,Pr4,59.85815,6639030,17.63363,1602521
Sö 345B $ ,0,"Uppsala, Svartbäckstull",Uppsala,Uppsala,Uppsala,?,59.85856,6639100,17.63893,1602500
Sö 346 $ ,1,"Svartbäcksgatan, Uppsala",Uppsala,Uppsala,Uppsala,Pr3,59.86018,6639235,17.63594,1602630
Sö 347  ,0,"Uppsala, kv. Torget",Uppsala,Uppsala,Uppsala,Pr4,59.93865,6639225,16.86229,1602610
Sö 348  ,0,"Uppsala, kv. Torget",Uppsala,Uppsala,Uppsala,Pr4,59.93865,6639225,16.86229,1602610
Sö 349  ,1,"Uppsala, kv. Torget",Uppsala,Uppsala,Uppsala,Pr3,59.93865,6639225,16.86229,1602610
Sö 35  ,0,"Uppsala, kv. Torget",Uppsala,Uppsala,Uppsala,Pr3 - Pr4 [Gräslund muntligt],59.93865,6639219,16.86229,1602602
Sö 350  ,1,"Bredgränden, Uppsala",Uppsala,Uppsala,Uppsala,Pr1 - Pr2,59.85765,6639100,17.64127,1602512
Sö 351 $ ,1,"Ärkebiskopsgården, Uppsala",Uppsala,Uppsala,Uppsala,Pr2,59.85742,6638975,17.63128,1602400
Sö 352 $ ,1,Uppsala,Uppsala,Uppsala,Uppsala,Pr4?,59.85856,6639100,17.63893,1602500
Sö 353  ,1,Danmarks kyrka,Danmarks sn,Vaksala hd,Uppsala,Pr3,59.83294,6636435,17.74484,1608750
Sö 354  ,0,Danmarks kyrka,Danmarks sn,Vaksala hd,Uppsala,KB,59.83294,6636459,17.74484,1608774
Sö 355 $ ,0,"Berga, Fålebro",Danmarks sn,Vaksala hd,Uppsala,Pr1 - Pr2,59.82496,6635463,17.73187,1608071
Sö 356 $ ,0,"Danmarks by, Fålebro",Danmarks sn,Vaksala hd,Uppsala,Pr4,59.83239,6635549,17.74485,1608342
Sö 357  ,0,Lunda,Danmarks sn,Vaksala hd,Uppsala,?,59.87698,6639862,17.68572,1608079
Sö 358  ,0,Myrby,Danmarks sn,Vaksala hd,Uppsala,Pr4,60.08194,6637349,17.70196,1609470
Sö 359  ,1,Säby,Danmarks sn,Vaksala hd,Uppsala,"KB, Pr2",59.80712,6637130,17.81922,1607066
Sö 36  ,1,Sällinge,Danmarks sn,Vaksala hd,Uppsala,Pr4,59.85256,6638425,17.74415,1608325
Sö 360  ,1,Sällinge,Danmarks sn,Vaksala hd,Uppsala,?,59.85256,6638510,17.74415,1608565
Sö 361 $ ,0,Söderby,Danmarks sn,Vaksala hd,Uppsala,Pr1?,59.93259,6633950,17.48315,1609125
Sö 362 $ ,1,Tjocksta,Danmarks sn,Vaksala hd,Uppsala,Pr3?,59.83333,6635900,17.76667,1610600
Sö 363  ,1,Vedyxa,Danmarks sn,Vaksala hd,Uppsala,Pr3,59.85033,6638161,17.77073,1610189
Sö 364  ,0,Vedyxa (Viggby),Danmarks sn,Vaksala hd,Uppsala,Pr4?,59.84875,6637945,17.77772,1610020
Sö 366  ,0,Villinge,Danmarks sn,Vaksala hd,Uppsala,?,59.8323,6636513,17.71994,1607552
Sö 367  ,0,Vaksala kyrka,Vaksala sn,Vaksala hd,Uppsala,Pr5,59.87601,6641117,17.68635,1605339
Sö 368  ,0,Vaksala kyrka,Vaksala sn,Vaksala hd,Uppsala,?,59.87601,6641130,17.68635,1605340
Sö 369  ,0,Vaksala kyrka,Vaksala sn,Vaksala hd,Uppsala,Pr4,59.87601,6641121,17.68635,1605361
Sö 37  ,1,Vaksala kyrka,Vaksala sn,Vaksala hd,Uppsala,Pr5,59.87601,6641181,17.68635,1605316
Sö 370  ,0,Vaksala kyrka,Vaksala sn,Vaksala hd,Uppsala,RAK,59.87601,6641173,17.68635,1605316
Sö 371  ,0,Vaksala kyrka,Vaksala sn,Vaksala hd,Uppsala,Pr1,59.87601,6641164,17.68635,1605316
Sö 372 †M ,0,Vaksala kyrka,Vaksala sn,Vaksala hd,Uppsala,?,59.87601,6641158,17.68635,1605316
Sö 373 † ,0,Vaksala kyrka,Vaksala sn,Vaksala hd,Uppsala,?,59.87601,6641102,17.68635,1605359
Sö 374 $ ,1,Vaksala kyrka,Vaksala sn,Vaksala hd,Uppsala,?,59.87601,6641117,17.68635,1605339
Sö 375  ,0,Bolsta,Vaksala sn (nu Uppsala),Vaksala hd,Uppsala,Pr4?,59.87698,6640720,17.68572,1605925
Sö 376 † ,0,Bolsta,Vaksala sn (nu Uppsala),Vaksala hd,Uppsala,Pr3 - Pr4,59.87698,6640623,17.68572,1605999
Sö 377  ,1,Bolsta,Vaksala sn (nu Uppsala),Vaksala hd,Uppsala,Pr5,59.87698,6640623,17.68572,1605999
Sö 378  ,0,Eke,Vaksala sn,Vaksala hd,Uppsala,Fp,59.87698,6642186,17.68572,1605343
Sö 38 † ,0,Gnista (Fyrislund),Vaksala sn,Vaksala hd,Uppsala,?,59.84523,6637800,17.70631,1606600
Sö 380 † ,0,Gränby,Vaksala sn (nu Uppsala),Vaksala hd,Uppsala,Pr5,59.87552,6640790,17.67275,1604473
Sö 381  ,0,Jädra,Vaksala sn,Vaksala hd,Uppsala,Pr5,59.8867,6642537,17.7248,1607611
Sö 382 † ,0,Lunda,Vaksala sn,Vaksala hd,Uppsala,?,59.89762,6643098,17.72345,1607407
Sö 383 †$ ,0,Råby,Vaksala sn,Vaksala hd,Uppsala,Pr4,59.54011,6643562,17.50371,1604533
Sö 39  ,0,Vittulsberg,Vaksala sn,Vaksala hd,Uppsala,Pr4?,59.90793,6644650,17.6746,1604475
Sö 4 †$ ,0,Gamla Uppsala kyrka,Gamla Uppsala sn (nu Uppsala),Vaksala hd,Uppsala,Pr2,59.8995,6643643,17.63191,1602252
Sö 40 $ ,1,Gamla Uppsala kyrka,Gamla Uppsala sn (nu Uppsala),Vaksala hd,Uppsala,?,59.8995,6643667,17.63191,1602218
Sö 41 $ ,1,Prästgården,Gamla Uppsala sn (nu Uppsala),Vaksala hd,Uppsala,Pr4?,59.89733,6643650,17.63685,1602100
Sö 42  ,1,Bredåker,Gamla Uppsala sn (nu Uppsala),Vaksala hd,Uppsala,?,59.87698,6645200,17.68572,1602950
Sö 43 $ ,1,Bärby,Gamla Uppsala sn (nu Uppsala),Vaksala hd,Uppsala,Pr3?,59.88337,6642281,17.61965,1600634
Sö 44 † ,0,Ekeby,Gamla Uppsala sn (nu Uppsala),Vaksala hd,Uppsala,Pr4?,59.85522,6649950,17.61064,1604325
Sö 45 $ ,1,Hämringe,Gamla Uppsala sn (nu Uppsala),Vaksala hd,Uppsala,Pr4 - Pr5,59.91447,6646040,17.65122,1603657
Sö 46 $ ,1,"Kungsgården, Sam0n",Gamla Uppsala sn (nu Uppsala),Vaksala hd,Uppsala,Pr3 - Pr4?,59.90525,6644250,17.64201,1602750
Sö 47 $ ,1,Funbo kyrka,Funbo sn,Rasbo hd,Uppsala,Pr3,59.85594,6639209,17.85544,1614862
Sö 48  ,0,Funbo kyrka,Funbo sn,Rasbo hd,Uppsala,?,59.85594,6639170,17.85544,1614893
Sö 49  ,1,Funbo kyrka,Funbo sn,Rasbo hd,Uppsala,,59.85594,6639209,17.85544,1614862
Sö 5 † ,0,Broby,Funbo sn,Rasbo hd,Uppsala,Fp,59.86091,6640063,17.82014,1613203
Sö 50  ,0,Broby,Funbo sn,Rasbo hd,Uppsala,Pr3 - Pr4,59.86091,6640070,17.82014,1613197
Sö 51  ,0,Broby,Funbo sn,Rasbo hd,Uppsala,Fp,59.86091,6639894,17.82014,1613117
Sö 52  ,0,Brunnby,Funbo sn,Rasbo hd,Uppsala,Pr4,59.85684,6639321,17.80242,1612568
Sö 53 † ,0,Brunnby,Funbo sn,Rasbo hd,Uppsala,?,59.85684,6639100,17.80242,1612000
Sö 54 $ ,1,Funbo bro,Funbo sn,Rasbo hd,Uppsala,Pr4,59.85698,6639300,17.85802,1615050
Sö 55  ,1,Karberga (Sundby),Funbo sn,Rasbo hd,Uppsala,Pr4,59.8579,6639307,17.84526,1614280
Sö 56 $ ,0,Lövsta,Funbo sn,Rasbo hd,Uppsala,Pr4,59.96201,6636833,17.57492,1612062
Sö 57 † ,0,Skällerö (Marielund),Funbo sn,Rasbo hd,Uppsala,Pr2,59.84248,6637098,17.86259,1614953
Sö 58  ,0,Åkerby,Funbo sn,Rasbo hd,Uppsala,Fp,59.85545,6640814,17.85364,1611735
Sö 59  ,0,Rasbo kyrka,Rasbo sn,Rasbo hd,Uppsala,?,59.94947,6649630,17.87948,1615918
Sö 6 † ,0,Rasbo kyrka,Rasbo sn,Rasbo hd,Uppsala,?,59.94947,6649642,17.87948,1615913
Sö 60 $ ,1,Rasbo kyrka,Rasbo sn,Rasbo hd,Uppsala,?,59.94947,6649617,17.87948,1615924
Sö 61  ,0,Frötuo,Rasbo sn,Rasbo hd,Uppsala,Pr4?,59.85856,6644388,17.63893,1614884
Sö 62  ,1,Frötuo,Rasbo sn,Rasbo hd,Uppsala,Pr3??,59.85856,6644377,17.63893,1614888
Sö 63 †$ ,0,Hov,Rasbo sn,Rasbo hd,Uppsala,Pr4?,59.96301,6651571,17.91956,1618680
Sö 64 † ,0,Lejsta,Rasbo sn,Rasbo hd,Uppsala,Pr4,59.95252,6649457,17.89719,1616565
Sö 65  ,1,Visteby,Rasbo sn,Rasbo hd,Uppsala,Pr4,59.91667,6644473,17.88333,1617110
Sö 66  ,0,Västerberga,Rasbo sn,Rasbo hd,Uppsala,Pr4,59.95644,6650325,17.83664,1613675
Sö 67 † ,0,Yrsta,Rasbo sn,Rasbo hd,Uppsala,Pr3,59.94623,6648910,17.82003,1612814
Sö 68 †$ ,0,Årsta,Rasbo sn,Rasbo hd,Uppsala,Pr4,59.86793,6647190,17.68888,1616506
Sö 69  ,0,Örby,Rasbo sn,Rasbo hd,Uppsala,Pr4,59.93825,6648400,17.81687,1612470
Sö 7  ,1,Rasbokils kyrka,Rasbokils sn,Rasbo hd,Uppsala,Pr3 - Pr4,59.99282,6654403,17.86039,1614682
Sö 70  ,1,Ärentuna kyrka,Ärentuna sn,Norunda hd,Uppsala,?,59.95554,6649847,17.60605,1600604
Sö 71 $ ,1,Ärentuna kyrka,Ärentuna sn,Norunda hd,Uppsala,Pr5,59.95554,6649764,17.60605,1600608
Sö 72 † ,0,Ärentuna kyrka,Ärentuna sn,Norunda hd,Uppsala,Pr5?,59.95554,6649769,17.60605,1600615
Sö 73  ,1,Fjuckby,Ärentu0 sn,Norunda hd,Uppsala,Pr2?,59.97734,6652724,17.61549,1601240
Sö 74 $ ,1,Fjuckby,Ärentu0 sn,Norunda hd,Uppsala,?,59.97734,6652800,17.61549,1601100
Sö 75 $ ,0,Kolje,Ärentu0 sn,Norunda hd,Uppsala,Pr4,59.95115,6649585,17.61846,1601476
Sö 76 † ,0,Kyrsta,Ärentu0 sn,Norunda hd,Uppsala,Pr4,59.97949,6652934,17.64794,1602093
Sö 77  ,0,Kyrsta,Ärentu0 sn,Norunda hd,Uppsala,Pr4,59.97949,6652334,17.64794,1603196
Sö 79 $ ,0,Nederbacka (Rosta bro),Ärentu0 sn,Norunda hd,Uppsala,Pr4?,59.95939,6649200,17.60397,1600850
Sö 8  ,0,Storvreta,Ärentu0 sn,Norunda hd,Uppsala,Pr4,59.95939,6650776,17.70569,1605707
Sö 80 †$ ,0,Vallby,Ärentu0 sn,Norunda hd,Uppsala,Pr4?,59.95052,6648550,17.8303,1602375
Sö 81 † ,0,Vaxmyra,Ärentuna sn,Norunda hd,Uppsala,Pr4,59.97007,6651346,17.635,1602371
Sö 82 $ ,1,Vaxmyra,Ärentu0 sn,Norunda hd,Uppsala,?,59.97007,6651625,17.635,1602225
Sö 83 † ,0,Lena kyrka,Lena sn,Norunda hd,Uppsala,Pr4,60.01189,6656203,17.72183,1606857
Sö 84 $ ,0,Lena kyrka,Lena sn,Norunda hd,Uppsala,Pr4,60.01189,6656203,17.72183,1606857
Sö 85 $ ,1,Lena kyrka,Lena sn,Norunda hd,Uppsala,?,60.01189,6656319,17.72183,1606899
Sö 86  ,0,Lena kyrka,Lena sn,Norunda hd,Uppsala,?,60.01189,6656310,17.72183,1606905
Sö 87 † ,0,Björnhammar,Lena sn,Norunda hd,Uppsala,Pr4,58.86545,6660100,15.37537,1607525
Sö 88 $ ,0,Hånsta,Le0 sn,Norunda hd,Uppsala,?,60.0147,6656543,17.68621,1604988
Sö 89  ,0,Ånge,Le0 sn,Norunda hd,Uppsala,Pr4,59.99001,6653809,17.71657,1606762
Sö 9  ,1,Årby,Le0 sn,Norunda hd,Uppsala,RAK?,59.97121,6651827,17.71598,1606730
Sö 90 $ ,0,Tensta kyrka,Tensta sn,Norunda hd,Uppsala,Pr5,60.04077,6659442,17.67195,1604033
Sö 91 †$ ,0,Tensta kyrka,Tensta sn,Norunda hd,Uppsala,Pr4?,60.04077,6659397,17.67195,1604055
Sö 92  ,0,Tensta kyrka,Tensta sn,Norunda hd,Uppsala,Pr4,60.04077,6659416,17.67195,1604052
Sö 93  ,0,Tensta kyrka,Tensta sn,Norunda hd,Uppsala,?,60.04077,6659450,17.67195,1604025
Sö 94 † ,0,Altomta,Tensta sn,Norunda hd,Uppsala,Pr4?,60.02177,6657400,17.69821,1615650
Sö 95  ,1,Bräcksta,Tensta sn,Norunda hd,Uppsala,Pr4,60.04163,6659095,17.65642,1602987
Sö 96  ,0,Fasma,Tensta sn,Norunda hd,Uppsala,Pr4,60.05608,6661006,17.62415,1601028
Sö 97  ,1,Golvasta,Tensta sn,Norunda hd,Uppsala,Pr3 - Pr4,60.07238,6661965,17.66913,1603417
Sö 98 $ ,0,"Källbo, Lugnet",Tensta sn,Norunda hd,Uppsala,Pr4,59.64924,6659355,17.79055,1601013
Sö 99  ,0,Onslunda,Tensta sn,Norunda hd,Uppsala,Pr3 - Pr4,60.02534,6656623,17.63784,1601883
Sö ATA1918/43  ,0,Onslunda,Tensta sn,Norunda hd,Uppsala,Pr5,60.02534,6656900,17.63784,1602250
Sö ATA322-1467-2011  ,0,Björklinge kyrka,Björklinge sn,Norunda hd,Uppsala,Pr4 - Pr5,60.026992,6657733,17.55252,1597403
Sö ATA322-4237-2011 $ ,0,Björklinge kyrka,Björklinge sn,Norunda hd,Uppsala,Pr4,60.026992,6657732,17.55252,1597411
Sö ATA323-3863-1999  ,0,Björklinge kyrka,Björklinge sn,Norunda hd,Uppsala,Pr4,60.026992,6657729,17.55252,1597421
Sö ATA4202/63  ,0,Björklinge kyrka,Björklinge sn,Norunda hd,Uppsala,Pr4?,60.026992,6657727,17.55252,1597432
Sö ATA4207/71  ,0,Björklinge kyrka,Björklinge sn,Norunda hd,Uppsala,?,60.026992,6657731,17.55252,1597422
Sö ATA5165/58  ,0,Björklinge kyrka,Björklinge sn,Norunda hd,Uppsala,Pr4?,60.026992,6657730,17.55252,1597360
Sö ATA5501/52  ,0,Prästgården,Björklinge sn,Norunda hd,Uppsala,Pr4?,60.031776,6657621,17.5521,1597259
Sö ATA6058/54  ,0,Axlunda,Björklinge sn,Norunda hd,Uppsala,Pr4,60.04195,6659200,17.46667,1593550
Sö ATA6163/61 $ ,1,Hammarby,Björklinge sn,Norunda hd,Uppsala,Pr4?,60.037133,6658997,17.47191,1593322
Sö ATA6294/59  ,0,Lund,Björklinge sn,Norunda hd,Uppsala,?,60.031776,6654720,17.5521,1597859
Sö ATA6447/61  ,0,Ramsjö,Björklinge sn,Norunda hd,Uppsala,,60.040953,6659050,17.54126,1596700
Sö ATA6491/60  ,0,Ramsjö,Björklinge sn,Norunda hd,Uppsala,Pr4,60.040953,6659712,17.54126,1596728
Sö ATA7551/92 $ ,0,Sandbro,Björklinge sn,Norunda hd,Uppsala,Pr4,60.015791,6655224,17.58158,1598959
Sö EMÅ1960;5  ,0,Sandbro,Björklinge sn,Norunda hd,Uppsala,Pr4?,60.015791,6656322,17.58158,1598872
Sö Fv1948;282  ,1,"Såpebo, Möboda",Björklinge sn,Norunda hd,Uppsala,Pr4?,60.031776,6661844,17.5521,1596098
Sö Fv1948;289  ,0,Tibble,Björklinge sn,Norunda hd,Uppsala,Pr4?,60.022649,6657309,17.5636,1597674
Sö Fv1948;291  ,0,Viksta kyrka,Viksta sn,Norunda hd,Uppsala,Pr3 - Pr4,60.07727,6663454,17.63943,1602113
Sö Fv1948;293  ,0,"Dalboda, Heden",Viksta sn,Norunda hd,Uppsala,Pr4,60.11007,6667218,17.53445,1595747
Sö Fv1948;295  ,1,Källslätt,Viksta sn,Norunda hd,Uppsala,Pr4,60.15605,6671945,17.49359,1593677
Sö Fv1948;298 $ ,0,Nyvalla,Viksta sn,Norunda hd,Uppsala,?,60.04064,6662800,18.08067,1603700
Sö Fv1948;301  ,0,Rångsta,Viksta sn,Norunda hd,Uppsala,Pr4,60.07406,6662979,17.62157,1601182
Sö Fv1948;314  ,0,Åkerby kyrka,Åkerby sn,Bälinge hd,Uppsala,Pr1,59.90969,6646132,18.26603,1594572
Sö Fv1954;19 $ ,0,Åkerby kyrka,Åkerby sn,Bälinge hd,Uppsala,Pr1,59.90969,6646134,18.26603,1594565
Sö Fv1954;20  ,0,Åkerby kyrka,Åkerby sn,Bälinge hd,Uppsala,?,59.90969,6646116,18.26603,1594604
Sö Fv1954;22  ,1,Berga,Åkerby sn,Bälinge hd,Uppsala,Pr4,59.90969,6646426,18.26603,1594105
Sö Fv1958;242  ,1,Kroksta,Åkerby sn,Bälinge hd,Uppsala,Pr4,59.90969,6647413,18.26603,1592938
Sö Fv1958;247A  ,0,"Sylta, Söderby",Åkerby sn,Bälinge hd,Uppsala,Pr3,59.90969,6646969,18.26603,1594793
Sö Fv1958;247B  ,0,Bälinge kyrka,Bälinge sn,Bälinge hd,Uppsala,Pr4,59.94603,6648692,17.52963,1596352
Sö Fv1958;247C  ,0,Bälinge kyrka,Bälinge sn,Bälinge hd,Uppsala,Pr5,59.94603,6648685,17.52963,1596376
Sö Fv1958;247D  ,0,Bälinge kyrka,Bälinge sn,Bälinge hd,Uppsala,Pr4?,59.94603,6648685,17.52963,1596376
Sö Fv1959;262 $ ,0,Bälinge kyrka,Bälinge sn,Bälinge hd,Uppsala,Pr4?,59.94603,6648685,17.52963,1596376
Sö Fv1969;298  ,1,Bälinge kyrka,Bälinge sn,Bälinge hd,Uppsala,Pr4?,59.94603,6648685,17.52963,1596376
Sö Fv1971;207  ,0,Bälinge kyrka,Bälinge sn,Bälinge hd,Uppsala,?,59.94603,6648673,17.52963,1596312
Sö Fv1971;208  ,0,Bälinge kyrka,Bälinge sn,Bälinge hd,Uppsala,?,59.94603,6648685,17.52963,1596376
Sö Fv1973;187  ,0,Bälinge kyrka,Bälinge sn,Bälinge hd,Uppsala,,59.94603,6648692,17.52963,1596352
Sö Fv1973;188A  ,0,Forkarby,Bälinge sn,Bälinge hd,Uppsala,Pr4 - Pr5,59.92807,6646710,17.5614,1598028
Sö Fv1973;188B  ,0,Forkarby,Bälinge sn,Bälinge hd,Uppsala,Pr5?,59.92807,6646700,17.5614,1598030
Sö Fv1973;189  ,1,"Forkarby, Korsbacken",Bälinge sn,Bälinge hd,Uppsala,Pr5?,59.92778,6647322,17.56192,1597665
Sö Fv1979;239  ,0,Forkarby,Bälinge sn,Bälinge hd,Uppsala,?,59.92807,6647340,17.5614,1597670
Sö Fv1979;240 $ ,1,Gysta,Bälinge sn,Bälinge hd,Uppsala,Pr4?,59.96255,6650750,17.54477,1597200
Sö Fv1982;235  ,1,Hämringe,Bälinge sn,Bälinge hd,Uppsala,Pr5,59.94574,6648763,17.55411,1598324
Sö Fv1984;253  ,0,Högsta,Bälinge sn,Bälinge hd,Uppsala,Pr4,59.94882,6651635,17.53322,1598361
Sö Fv1984;254  ,0,Högsta,Bälinge sn,Bälinge hd,Uppsala,Pr4,59.94882,6651100,17.53322,1598550
Sö Fv1986;218 $ ,0,Lövsta,Bälinge sn,Bälinge hd,Uppsala,Pr4,59.96201,6650600,17.57492,1598850
Sö Fv1986;220 $ ,0,Lövsta,Bälinge sn,Bälinge hd,Uppsala,Pr4,59.96201,6650750,17.57492,1598800
Sö Fv1988;34 $ ,0,Marsta,Bälinge sn,Bälinge hd,Uppsala,Pr4,59.62524,6647093,17.85157,1599603
Sö Fv1990;31  ,0,Marsta,Bälinge sn,Bälinge hd,Uppsala,Pr4 - Pr5?,59.62524,6647050,17.85157,1599700
Sö Fv1993;229  ,1,Målsta,Bälinge sn,Bälinge hd,Uppsala,Pr4?,59.94475,6647500,17.54083,1595800
Sö Fv1993;230  ,0,Nyvla,Bälinge sn,Bälinge hd,Uppsala,Pr4,59.868316,6649850,17.572281,1595923
Sö Fv2011;307 U ,0,"Nyvla, Tingstukällan",Bälinge sn,Bälinge hd,Uppsala,Pr4,59.959147,6650154,17.529213,1596336
Sö NOR1997;26  ,0,Rosta bro,Bälinge sn,Bälinge hd,Uppsala,Pr4,59.858564,6649140,17.638927,1600795
Sö NOR1998;22 $ ,0,Rörby,Bälinge sn,Bälinge hd,Uppsala,Pr4,59.860962,6648050,17.716401,1597440
Sö NOR1998;23  ,0,Rörby,Bälinge sn,Bälinge hd,Uppsala,Pr5,59.860962,6648050,17.716401,1597440
Sö NOR2003;21  ,0,Sundbro,Bälinge sn,Bälinge hd,Uppsala,Pr4,59.92692,6646400,17.53105,1596400
Sö NOR2003;22 $ ,0,Sundbro,Bälinge sn,Bälinge hd,Uppsala,Pr4?,59.92692,6646665,17.53105,1596250
Sö Sb1963;149  ,0,Sundbro,Bälinge sn,Bälinge hd,Uppsala,Pr4,59.92692,6646675,17.53105,1596230
Sö Sb1965;12 $ ,0,Sundbro,Bälinge sn,Bälinge hd,Uppsala,Pr4,59.92692,6646650,17.53105,1596339
Sö Sb1965;19  ,0,Sundbro,Bälinge sn,Bälinge hd,Uppsala,?,59.92692,6646600,17.53105,1596450
Sö Sb1965;20 $ ,0,Svista,Bälinge sn,Bälinge hd,Uppsala,Pr4,59.93396,6647600,17.59822,1600100
Sö Sb1965;22  ,0,Svista,Bälinge sn,Bälinge hd,Uppsala,Pr4?,59.93396,6647600,17.59822,1600125
U 1  ,1,Tuna,Bälinge sn,Bälinge hd,Uppsala,Pr4,59.95,6648261,17.466667,1593675
U 10 $ ,0,Åloppe,Bälinge sn,Bälinge hd,Uppsala,Pr4?,59.9525,6649300,17.50131,1594700
U 100  ,1,Äskelunda,Bälinge sn,Bälinge hd,Uppsala,Pr4,59.9389,6647730,17.49339,1594475
U 1000 † ,0,Äskelunda,Bälinge sn,Bälinge hd,Uppsala,Pr4,59.9389,6647746,17.49339,1594467
U 1001 $ ,0,Skuttunge kyrka,Skuttunge sn,Bälinge hd,Uppsala,Pr4,59.99852,6654509,17.51457,1595399
U 1002  ,0,Skuttunge kyrka,Skuttunge sn,Bälinge hd,Uppsala,Pr4 - Pr5?,59.99852,6654516,17.51457,1595413
U 1003 $ ,0,Broddbo,Skuttunge sn,Bälinge hd,Uppsala,Pr4,59.98736,6656020,16.47794,1590471
U 1004  ,0,Eke,Skuttunge sn,Bälinge hd,Uppsala,Pr4,59.98267,6652922,17.51758,1596195
U 1005  ,0,Grävsta,Skuttunge sn,Bälinge hd,Uppsala,?,59.75168,6653500,17.53491,1596850
U 1006  ,1,Häggeby,Skuttunge sn,Bälinge hd,Uppsala,Pr4?,60.0264,6657340,17.53012,1596570
U 1007  ,1,Myrby,Skuttunge sn,Bälinge hd,Uppsala,?,60.08194,6656500,17.70196,1589500
U 1008 $ ,1,Norrby,Skuttunge sn,Bälinge hd,Uppsala,Pr3 - Pr4?,59.99047,6653400,17.50626,1596000
U 1009 $ ,0,Skuttunge by,Skuttunge sn,Bälinge hd,Uppsala,Pr4,59.99409,6654100,17.50148,1594725
U 101  ,0,Vigle,Skuttunge sn,Bälinge hd,Uppsala,Pr4,60.03623,6658631,17.52113,1596044
U 1010  ,0,Örke,Skuttunge sn,Bälinge hd,Uppsala,Pr4,60.00725,6655976,17.52955,1596327
U 1011  ,1,Örke,Skuttunge sn,Bälinge hd,Uppsala,Pr4,60.00725,6655500,17.52955,1596152
U 1012  ,1,Örke,Skuttunge sn,Bälinge hd,Uppsala,Pr4 - Pr5,60.00725,6655500,17.52955,1596152
U 1013 †$ ,0,Örke,Skuttunge sn,Bälinge hd,Uppsala,?,60.00725,6655246,17.52955,1595891
U 1014 $ ,1,Stavby kyrka,Stavby sn,Olands hd,Uppsala,Pr4,60.01021,6656538,17.96658,1620559
U 1015 $ ,0,Tu0 kyrka,Tu0 sn,Olands hd,Uppsala,Pr4?,59.85856,6657834,17.63893,1625972
U 1016 $ ,1,Tu0 kyrka,Tu0 sn,Olands hd,Uppsala,?,59.85856,6657796,17.63893,1626006
U 1017  ,1,Krogsta,Tu0 sn,Olands hd,Uppsala,,59.73485,6658977,18.01993,1626281
U 1102 † ,0,"Uppsala, Fyristorg",Uppsala,Uppsala,Uppsala,,59.85832,6639075,17.63619,1602600
U 1108 †$ ,0,Bälinge kyrka,Bälinge sn,Bälinge hd,Uppsala,,59.94603,6648685,17.52963,1596376
U 1138  ,0,"Uppsala, kv. St Per",Uppsala,Uppsala,Uppsala,?,59.85856,6639266,17.63893,1602711
U 1139 $ ,0,"Uppsala, kv. St Per",Uppsala,Uppsala,Uppsala,,59.85856,6639266,17.63893,1602711
U 1148 † ,0,"Uppsala, kv. Torget",Uppsala,Uppsala,Uppsala,Pr4?,59.93865,6639219,16.86229,1602602
U 1155  ,1,Uppsala domkyrka,Uppsala,,Uppsala,Pr4,59.85815,6639052,17.63363,1602466
U 1156 $ ,1,Uppsala domkyrka,Uppsala,,Uppsala,?,59.85815,6639052,17.63363,1602466
U 1157  ,1,"Uppsala, kv. Rådhuset 2-3",Uppsala,Uppsala,Uppsala,Pr5? [Källström i SRI 10 Dig. suppl.],59.85895,6639125,17.63928,1602675
U 1158  ,0,"Uppsala, kv. Torget",Uppsala,Uppsala,Uppsala,?,59.93865,6639246,16.86229,1602599
U 116 $ ,0,Åby,Björklinge sn,Norunda hd,Uppsala,,60.000945,6654977,17.54131,1596698
U 1161 $ ,0,Skolhuset,Balingsta sn,Hagunda hd,Uppsala,,58.39164,6628167,13.58024,1591098
U 1166 † ,0,Uppsala domkyrka,Uppsala,,Uppsala,Pr2?,59.85815,6639027,17.63363,1602516
U 1167  ,0,Uppsala domkyrka,Uppsala,,Uppsala,Pr4,59.85815,6639041,17.63363,1602527
U 1170  ,0,"Uppsala, kv. Torget",Uppsala,Uppsala,Uppsala,?,59.93865,6639225,16.86229,1602610
U 1179  ,0,Risberga,Östu0 sn,Långhundra hd,Uppsala,Pr4?,59.76178,6628357,17.93379,1619501
U 120 $ ,0,"Uppsala, sjukhuset",Uppsala,,Uppsala,Pr4?,59.84985,6638000,17.64027,1602800
U 122 † ,0,Ärnevi,Funbo sn,Rasbo hd,Uppsala,?,59.8566,6639155,17.82648,1613163
U 134 $ ,0,"Uppsala, kv. Bryggaren",Uppsala,Uppsala,Uppsala,,59.85856,6638875,17.63893,1602925
U 136 $ ,1,Gamla Uppsala kyrka,Gamla Uppsala sn (nu Uppsala),Vaksala hd,Uppsala,Pr5(?) [Fv 2012],59.8995,6643643,17.63191,1602252
U 137 $ ,1,Vaksala kyrka,Vaksala sn,Vaksala hd,Uppsala,,59.87601,6641117,17.68635,1605339
U 138 † ,0,Uppsala,Uppsala,,Uppsala,,59.85856,6639100,17.63893,1602500
U 14  ,1,Ulva kvarn,Gamla Uppsala sn (nu Uppsala),Vaksala hd,Uppsala,Pr3 - Pr4? [Gräslund muntligt],59.91338,6645027,17.57525,1599083
U 143  ,0,Tibble,Skogstibble sn (nu Skogs-Tibble),Hagunda hd,Uppsala,,59.99897,6635318,17.86228,1584765